SPAWAR-CAL-R            
1 43776U 18099U   26067.65115975  .00003570  00000+0  25336-3 0  9990
2 43776  97.4524 111.5817 0019701 348.9052  11.1737 15.05212097396878
STARLINK-5159           
1 53974U 22125L   26068.65715122  .00003168  00000+0  21710-3 0  9992
2 53974  53.2175 203.8701 0001208  88.2022 271.9108 15.08823838189605
